{
  "type": "Feature",
  "geometry": {
        "type": "Polygon",
        "coordinates": [
          [
            [-83.88347586680118, 41.95860658235112],
            [-83.88284539856632, 41.95824735922006],
            [-83.88212621860616, 41.95797822892509],
            [-83.87862504866685, 41.957974387446946],
            [-83.87862060101813, 41.9576161048586],
            [-83.87835277110557, 41.957617652961304],
            [-83.87736174174735, 41.95761809582042],
            [-83.87736667469525, 41.95734571555155],
            [-83.876284408779, 41.95734640915364],
            [-83.8761044740545, 41.95743683804476],
            [-83.8758384931745, 41.957706975492314],
            [-83.87547611359942, 41.957797996617714],
            [-83.87484847455532, 41.95815481535604],
            [-83.87422010124622, 41.95851603575456],
            [-83.8739515242834, 41.95869647690284],
            [-83.87367954948618, 41.9589660558911],
            [-83.87359196412558, 41.959503558030285],
            [-83.87368318876439, 41.959503225375286],
            [-83.87385973393492, 41.95950194328089],
            [-83.8761089218855, 41.9595040583619],
            [-83.87610730449246, 41.9598617777795],
            [-83.8767378419458, 41.96022102972848],
            [-83.87997210533062, 41.96022201656791],
            [-83.87996798123781, 41.96049005464479],
            [-83.88122605929087, 41.96049244452735],
            [-83.88123050675078, 41.96085070900028],
            [-83.88230686343202, 41.9608493562255],
            [-83.88257694020128, 41.96031117818083],
            [-83.88320579398852, 41.959144705524864],
            [-83.88347247068337, 41.95869572341938],
            [-83.88347586680118, 41.95860658235112]
          ],
          [
            [-83.87512068678792, 41.95833705264883],
            [-83.87511809891735, 41.958247366731776],
            [-83.87485106243724, 41.9582445014049],
            [-83.87484871716926, 41.95860663701388],
            [-83.8749400208122, 41.95860630745715],
            [-83.8749389694867, 41.95833338766578],
            [-83.87512068678792, 41.95833705264883]
          ]
        ]
  },
  "id": "00070000000000001b41",
  "properties": {
        "ASD": "90",
        "CDL2018": 5,
        "CDL2019": 61,
        "CDL2020": 5,
        "CDL2021": 1,
        "CDL2022": 5,
        "CDL2023": 1,
        "CDL2024": 5,
        "CDL2025": 1,
        "CNTY": "Lenawee",
        "CNTYFIPS": "091",
        "CSBACRES": 47.741295983,
        "CSBID": "261825002740369",
        "CSBYEARS": "1825",
        "INSIDE_X": 995043.4892,
        "INSIDE_Y": 2169872.8304,
        "STATEASD": "2690",
        "STATEFIPS": "26",
        "Shape_Area": 193202.341062,
        "Shape_Leng": 2264.7268845,
        "boundary_status": "estimated_unconfirmed",
        "source_name": "USDA NASS Crop Sequence Boundaries 2018-2025 rev23",
        "source_url": "https://www.nass.usda.gov/Research_and_Science/Crop-Sequence-Boundaries/",
        "matched_mienviro_point": [-83.8786902, 41.9591588],
        "approved_usable_acres_reported": 52.3,
        "warning": "This satellite-derived crop boundary is not the EGLE-approved biosolids application boundary and requires operator confirmation."
  }
}
